NORAD_CAT_ID,OBJECT_NAME,OBJECT_TYPE,EPOCH,MEAN_MOTION,ECCENTRICITY,INCLINATION,RA_OF_ASC_NODE,ARG_OF_PERICENTER,MEAN_ANOMALY,BSTAR,MEAN_MOTION_DOT,MEAN_MOTION_DDOT,TLE_LINE0,TLE_LINE1,TLE_LINE2,SEMIMAJOR_AXIS,PERIOD,APOGEE,PERIGEE,DECAYED
53889.0,STARLINK-5031,PAYLOAD,2023-09-24 08:14:32,15.08853128,0.0001242,53.2169,32.6118,99.2361,260.8771,0.0013613,0.00021451,0.0,0 STARLINK-5031,1 53889U 22119D   23267.34343235  .00021451  00000-0  13613-2 0  9994,2 53889  53.2169  32.6118 0001242  99.2361 260.8771 15.08853128 55799,6917.84,95.437,540.564,538.846,0.0
53889.0,STARLINK-5031,PAYLOAD,2023-09-24 13:00:41,15.08858113,0.0001105,53.2172,31.7196,88.763,271.3489,0.0017349,0.00027444,0.0,0 STARLINK-5031,1 53889U 22119D   23267.54215190  .00027444  00000-0  17349-2 0  9992,2 53889  53.2172  31.7196 0001105  88.7630 271.3489 15.08858113 56242,6917.825,95.436,540.454,538.926,0.0
53889.0,STARLINK-5031,PAYLOAD,2023-09-24 17:46:51,15.08858715,0.0001305,53.2169,30.828,87.5744,272.5398,0.001349,0.00021257,0.0,0 STARLINK-5031,1 53889U 22119D   23267.74087039  .00021257  00000-0  13490-2 0  9992,2 53889  53.2169  30.8280 0001305  87.5744 272.5398 15.08858715 55853,6917.823,95.436,540.591,538.785,0.0
53889.0,STARLINK-5031,PAYLOAD,2023-09-25 01:43:46,15.08847071,0.0001193,53.2169,29.3408,102.9656,257.1469,0.00084768,0.00013231,0.0,0 STARLINK-5031,1 53889U 22119D   23268.07207136  .00013231  00000-0  84768-3 0  9991,2 53889  53.2169  29.3408 0001193 102.9656 257.1469 15.08847071 55904,6917.859,95.437,540.549,538.898,0.0
53889.0,STARLINK-5031,PAYLOAD,2023-09-25 14:26:51,15.08850796,0.0001406,53.2177,26.9618,102.7584,257.3565,0.00082297,0.00012838,0.0,0 STARLINK-5031,1 53889U 22119D   23268.60199059  .00012838  00000-0  82297-3 0  9991,2 53889  53.2177  26.9618 0001406 102.7584 257.3565 15.08850796 56407,6917.847,95.437,540.685,538.74,0.0
53889.0,STARLINK-5031,PAYLOAD,2023-09-25 19:13:01,15.08869011,0.0001759,53.2174,26.0686,106.3814,253.7372,0.0012261,0.00019295,0.0,0 STARLINK-5031,1 53889U 22119D   23268.80070615  .00019295  00000-0  12261-2 0  9996,2 53889  53.2174  26.0686 0001759 106.3814 253.7372 15.08869011 56436,6917.792,95.436,540.874,538.44,0.0
53889.0,STARLINK-5031,PAYLOAD,2023-09-26 12:42:16,15.08841417,0.0001533,53.2181,22.799,101.7469,258.3695,0.00059524,9.198e-05,0.0,0 STARLINK-5031,1 53889U 22119D   23269.52935551  .00009198  00000-0  59524-3 0  9990,2 53889  53.2181  22.7990 0001533 101.7469 258.3695 15.08841417 56541,6917.876,95.437,540.802,538.681,0.0
53889.0,STARLINK-5031,PAYLOAD,2023-09-27 07:46:54,15.08841634,0.0001764,53.2191,19.2309,93.135,266.9844,0.00071191,0.00011061,0.0,0 STARLINK-5031,1 53889U 22119D   23270.32424181  .00011061  00000-0  71191-3 0  9998,2 53889  53.2191  19.2309 0001764  93.1350 266.9844 15.08841634 56245,6917.875,95.437,540.961,538.52,0.0
53889.0,STARLINK-5031,PAYLOAD,2023-09-27 12:33:03,15.08842039,0.0001712,53.2193,18.3384,95.5796,264.5392,0.00056495,8.715e-05,0.0,0 STARLINK-5031,1 53889U 22119D   23270.52296159  .00008715  00000-0  56495-3 0  9994,2 53889  53.2193  18.3384 0001712  95.5796 264.5392 15.08842039 56694,6917.874,95.437,540.923,538.555,0.0
53889.0,STARLINK-5031,PAYLOAD,2023-09-28 12:23:50,15.08841381,0.0001547,53.2195,13.8843,85.2939,274.823,0.00016492,2.338e-05,0.0,0 STARLINK-5031,1 53889U 22119D   23271.51656248  .00002338  00000-0  16492-3 0  9991,2 53889  53.2195  13.8843 0001547  85.2939 274.8230 15.08841381 56422,6917.876,95.437,540.811,538.671,0.0
53889.0,STARLINK-5031,PAYLOAD,2023-09-29 12:14:38,15.08841308,0.0001522,53.2191,9.4214,94.272,265.8446,0.00011784,1.588e-05,0.0,0 STARLINK-5031,1 53889U 22119D   23272.51016324  .00001588  00000-0  11784-3 0  9992,2 53889  53.2191   9.4214 0001522  94.2720 265.8446 15.08841308 56992,6917.876,95.437,540.794,538.688,0.0
53889.0,STARLINK-5031,PAYLOAD,2023-09-29 17:00:46,15.08854232,0.0001445,53.2192,8.5273,87.6489,272.4669,0.00027149,4.037e-05,0.0,0 STARLINK-5031,1 53889U 22119D   23272.70887606  .00004037  00000-0  27149-3 0  9996,2 53889  53.2192   8.5273 0001445  87.6489 272.4669 15.08854232 56609,6917.837,95.437,540.702,538.702,0.0
53889.0,STARLINK-5031,PAYLOAD,2023-09-30 10:30:01,15.08845687,0.000131,53.218,5.2573,102.1612,257.9527,0.00011862,1.601e-05,0.0,0 STARLINK-5031,1 53889U 22119D   23273.43751748  .00001601  00000-0  11862-3 0  9993,2 53889  53.2180   5.2573 0001310 102.1612 257.9527 15.08845687 56712,6917.863,95.437,540.634,538.822,0.0
53889.0,STARLINK-5031,PAYLOAD,2023-09-30 15:16:10,15.08858004,0.0001552,53.2181,4.3633,93.6038,266.5132,0.00037687,5.718e-05,0.0,0 STARLINK-5031,1 53889U 22119D   23273.63623321  .00005718  00000-0  37687-3 0  9996,2 53889  53.2181   4.3633 0001552  93.6038 266.5132 15.08858004 56742,6917.825,95.436,540.764,538.617,0.0
53889.0,STARLINK-5031,PAYLOAD,2023-09-30 23:13:06,15.08847395,0.0001395,53.2179,2.8776,90.7286,269.3866,9.1017e-05,1.161e-05,0.0,0 STARLINK-5031,1 53889U 22119D   23273.96743478  .00001161  00000-0  91017-4 0  9994,2 53889  53.2179   2.8776 0001395  90.7286 269.3866 15.08847395 56799,6917.858,95.437,540.688,538.758,0.0
53889.0,STARLINK-5031,PAYLOAD,2023-10-01 13:31:34,15.08853937,0.0001522,53.2176,0.2,94.3704,265.7462,0.00019166,2.765e-05,0.0,0 STARLINK-5031,1 53889U 22119D   23274.56359016  .00002765  00000-0  19166-3 0  9997,2 53889  53.2176   0.2000 0001522  94.3704 265.7462 15.08853937 57304,6917.838,95.437,540.756,538.65,0.0
53889.0,STARLINK-5031,PAYLOAD,2023-10-01 15:06:57,15.0885795,0.000169,53.2178,359.8998,93.3171,266.8014,0.00023936,3.525e-05,0.0,0 STARLINK-5031,1 53889U 22119D   23274.62982754  .00003525  00000-0  23936-3 0  9990,2 53889  53.2178 359.8998 0001690  93.3171 266.8014 15.08857950 56895,6917.826,95.436,540.86,538.521,0.0
53889.0,STARLINK-5031,PAYLOAD,2023-10-01 23:03:53,15.08844017,0.0001546,53.2182,358.417,85.7951,274.3218,7.1062e-05,8.43e-06,0.0,0 STARLINK-5031,1 53889U 22119D   23274.96103334  .00000843  00000-0  71062-4 0  9990,2 53889  53.2182 358.4170 0001546  85.7951 274.3218 15.08844017 56944,6917.868,95.437,540.803,538.664,0.0
53889.0,STARLINK-5031,PAYLOAD,2023-10-02 18:08:30,15.08860744,0.0001587,53.2179,354.8475,90.6485,269.4689,0.00068353,0.00010613,0.0,0 STARLINK-5031,1 53889U 22119D   23275.75590595  .00010613  00000-0  68353-3 0  9991,2 53889  53.2179 354.8475 0001587  90.6485 269.4689 15.08860744 57066,6917.817,95.436,540.78,538.584,0.0
53889.0,STARLINK-5031,PAYLOAD,2023-10-02 22:54:40,15.08824527,0.0001256,53.2182,353.9574,84.1475,275.9661,-0.00045214,-7.473e-05,0.0,0 STARLINK-5031,1 53889U 22119D   23275.95463398 -.00007473  00000-0 -45214-3 0  9996,2 53889  53.2182 353.9574 0001256  84.1475 275.9661 15.08824527 57094,6917.928,95.439,540.662,538.924,0.0
53889.0,STARLINK-5031,PAYLOAD,2023-10-03 11:37:45,15.08834193,0.000136,53.2174,351.578,90.2764,269.8384,0.0018717,0.00029621,0.0,0 STARLINK-5031,1 53889U 22119D   23276.48455832  .00029621  00000-0  18717-2 0  9993,2 53889  53.2174 351.5780 0001360  90.2764 269.8384 15.08834193 57176,6917.898,95.438,540.704,538.822,0.0
53889.0,STARLINK-5031,PAYLOAD,2023-10-03 16:23:55,15.08845068,0.0001462,53.217,350.6857,88.2229,271.893,0.0020017,0.00031717,0.0,0 STARLINK-5031,1 53889U 22119D   23276.68327882  .00031717  00000-0  20017-2 0  9993,2 53889  53.2170 350.6857 0001462  88.2229 271.8930 15.08845068 57626,6917.865,95.437,540.741,538.719,0.0
53889.0,STARLINK-5031,PAYLOAD,2023-10-04 11:28:33,15.0885726,0.0001482,53.2179,347.117,92.0714,268.0448,0.0019807,0.00031391,0.0,0 STARLINK-5031,1 53889U 22119D   23277.47816158  .00031391  00000-0  19807-2 0  9993,2 53889  53.2179 347.1170 0001482  92.0714 268.0448 15.08857260 57324,6917.828,95.436,540.718,538.667,0.0
53889.0,STARLINK-5031,PAYLOAD,2023-10-04 16:14:42,15.08870999,0.0001539,53.2182,346.2247,91.7239,268.3929,0.0020966,0.00033266,0.0,0 STARLINK-5031,1 53889U 22119D   23277.67687835  .00033266  00000-0  20966-2 0  9994,2 53889  53.2182 346.2247 0001539  91.7239 268.3929 15.08870999 57774,6917.786,95.436,540.715,538.586,0.0
53889.0,STARLINK-5031,PAYLOAD,2023-10-05 11:19:20,15.08857677,0.0001634,53.2185,342.6579,79.7495,280.3681,0.0021678,0.00034398,0.0,0 STARLINK-5031,1 53889U 22119D   23278.47176333  .00034398  00000-0  21678-2 0  9997,2 53889  53.2185 342.6579 0001634  79.7495 280.3681 15.08857677 57475,6917.826,95.436,540.822,538.561,0.0
53889.0,STARLINK-5031,PAYLOAD,2023-10-05 16:05:29,15.08869177,0.0001588,53.2181,341.7648,73.1584,286.9582,0.0022172,0.00035204,0.0,0 STARLINK-5031,1 53889U 22119D   23278.67048082  .00035204  00000-0  22172-2 0  9995,2 53889  53.2181 341.7648 0001588  73.1584 286.9582 15.08869177 57923,6917.791,95.436,540.755,538.558,0.0
53889.0,STARLINK-5031,PAYLOAD,2023-10-06 11:10:07,15.08851219,0.0001439,53.218,338.1974,84.1583,275.9573,0.0020147,0.00031931,0.0,0 STARLINK-5031,1 53889U 22119D   23279.46536653  .00031931  00000-0  20147-2 0  9992,2 53889  53.2180 338.1974 0001439  84.1583 275.9573 15.08851219 57623,6917.846,95.437,540.707,538.716,0.0
53889.0,STARLINK-5031,PAYLOAD,2023-10-06 20:42:26,15.08838658,0.0001319,53.2178,336.413,93.8552,266.2591,0.00036153,5.47e-05,0.0,0 STARLINK-5031,1 53889U 22119D   23279.86280683  .00005470  00000-0  36153-3 0  9999,2 53889  53.2178 336.4130 0001319  93.8552 266.2591 15.08838658 58104,6917.884,95.438,540.662,538.837,0.0
53889.0,STARLINK-5031,PAYLOAD,2023-10-07 12:36:17,15.08864064,0.0001355,53.2178,333.4396,93.8244,266.2903,0.0021046,0.00033388,0.0,0 STARLINK-5031,1 53889U 22119D   23280.52520540  .00033388  00000-0  21046-2 0  9996,2 53889  53.2178 333.4396 0001355  93.8244 266.2903 15.08864064 58201,6917.807,95.436,540.609,538.734,0.0
53889.0,STARLINK-5031,PAYLOAD,2023-10-07 14:11:40,15.08864913,0.0001459,53.2175,333.1421,92.3432,267.7727,0.0020384,0.00032324,0.0,0 STARLINK-5031,1 53889U 22119D   23280.59144526  .00032324  00000-0  20384-2 0  9992,2 53889  53.2175 333.1421 0001459  92.3432 267.7727 15.08864913 57798,6917.804,95.436,540.679,538.66,0.0
